MTI                     
1 26102U 00014A   21053.67747443  .00009918  00000-0  12937-3 0  9991
2 26102  97.4740 314.2990 0008405  33.5928 326.5862 15.58877874163450
CFESAT                  
1 30777U 07006F   21054.44851737  .00006076  00000-0  15616-3 0  9999
2 30777  35.4243 149.4449 0005073 304.4655  55.5593 15.38661934775102
SPIRALE A               
1 33751U 09008C   21053.65571212  .00000080  00000-0  41238-3 0  9995
2 33751   2.0626 342.4820 5378053  73.3779 337.1697  4.58776777172775
SPIRALE B               
1 33752U 09008D   21053.52014534  .00003197  00000-0  80407-3 0  9994
2 33752   2.1412  13.9129 6905031 357.7157   0.1767  2.76513280111666
SAPPHIRE                
1 39088U 13009C   21054.28718124  .00000023  00000-0  23485-4 0  9997
2 39088  98.4533 256.3678 0010255 260.1266  99.8762 14.34234299418459
